{"type": "FeatureCollection", "features": [ {"type": "Feature", "properties": {"norad_id": 31498, "name": "FENGYUN 1C DEB", "group": "fengyun-1c-debris", "lat": 63.79799443001768, "lon": 150.9890970409195, "alt_km": 852.3329060546666, "timestamp": "2025-12-07T09:35:10.073167+00:00", "meta": {"OBJECT_NAME": "FENGYUN 1C DEB", "OBJECT_ID": "1999-025BWM", "EPOCH": "2025-12-06T20:49:07.275648", "MEAN_MOTION": 13.7696962, "ECCENTRICITY": 0.02184623, "INCLINATION": 98.4854, "RA_OF_ASC_NODE": 312.8547, "ARG_OF_PERICENTER": 160.8939, "MEAN_ANOMALY": 200.0572, "EPHEMERIS_TYPE": 0, "CLASSIFICATION_TYPE": "U", "NORAD_CAT_ID": 31498, "ELEMENT_SET_NO": 999, "REV_AT_EPOCH": 92653, "BSTAR": 0.0020799179, "MEAN_MOTION_DOT": 2.411e-05, "MEAN_MOTION_DDOT": 0}, "tle": {"line1": "1 31498U 99025BWM 25340.86744532  .00002411  00000+0  20799-2 0  9999", "line2": "2 31498  98.4854 312.8547 0218462 160.8939 200.0572 13.76969620926534"}}, "geometry": {"type": "Point", "coordinates": [150.9890970409195, 63.79799443001768]}}, {"type": "Feature", "properties": {"norad_id": 31503, "name": "FENGYUN 1C DEB", "group": "fengyun-1c-debris", "lat": -54.33658142591863, "lon": 12.351181863155803, "alt_km": 794.1837061888673, "timestamp": "2025-12-07T09:35:10.073178+00:00", "meta": {"OBJECT_NAME": "FENGYUN 1C DEB", "OBJECT_ID": "1999-025BWS", "EPOCH": "2025-12-06T08:51:01.222560", "MEAN_MOTION": 14.22550106, "ECCENTRICITY": 0.00490449, "INCLINATION": 100.0993, "RA_OF_ASC_NODE": 205.5525, "ARG_OF_PERICENTER": 204.8314, "MEAN_ANOMALY": 155.0498, "EPHEMERIS_TYPE": 0, "CLASSIFICATION_TYPE": "U", "NORAD_CAT_ID": 31503, "ELEMENT_SET_NO": 999, "REV_AT_EPOCH": 64156, "BSTAR": 0.001905319, "MEAN_MOTION_DOT": 4.254e-05, "MEAN_MOTION_DDOT": 0}, "tle": {"line1": "1 31503U 99025BWS 25340.36876415  .00004254  00000+0  19053-2 0  9995", "line2": "2 31503 100.0993 205.5525 0049044 204.8314 155.0498 14.22550106641563"}}, "geometry": {"type": "Point", "coordinates": [12.351181863155803, -54.33658142591863]}}, {"type": "Feature", "properties": {"norad_id": 31507, "name": "FENGYUN 1C DEB", "group": "fengyun-1c-debris", "lat": 73.93661590451475, "lon": -136.19699278532178, "alt_km": 628.9208693364653, "timestamp": "2025-12-07T09:35:10.073188+00:00", "meta": {"OBJECT_NAME": "FENGYUN 1C DEB", "OBJECT_ID": "1999-025BWW", "EPOCH": "2025-12-06T20:42:34.449408", "MEAN_MOTION": 14.52139151, "ECCENTRICITY": 0.01179887, "INCLINATION": 98.1936, "RA_OF_ASC_NODE": 13.2538, "ARG_OF_PERICENTER": 96.132, "MEAN_ANOMALY": 84.3501, "EPHEMERIS_TYPE": 0, "CLASSIFICATION_TYPE": "U", "NORAD_CAT_ID": 31507, "ELEMENT_SET_NO": 999, "REV_AT_EPOCH": 97935, "BSTAR": 0.00083962139, "MEAN_MOTION_DOT": 3.679e-05, "MEAN_MOTION_DDOT": 0}, "tle": {"line1": "1 31507U 99025BWW 25340.86289872  .00003679  00000+0  83962-3 0  9990", "line2": "2 31507  98.1936  13.2538 0117988  96.1320  84.3501 14.52139151979357"}}, "geometry": {"type": "Point", "coordinates": [-136.19699278532178, 73.93661590451475]}}, {"type": "Feature", "properties": {"norad_id": 31508, "name": "FENGYUN 1C DEB", "group": "fengyun-1c-debris", "lat": -52.46819554552161, "lon": 101.13012571376943, "alt_km": 673.566312681739, "timestamp": "2025-12-07T09:35:10.073200+00:00", "meta": {"OBJECT_NAME": "FENGYUN 1C DEB", "OBJECT_ID": "1999-025BWX", "EPOCH": "2025-12-06T12:28:43.968576", "MEAN_MOTION": 14.62244446, "ECCENTRICITY": 0.00332175, "INCLINATION": 98.6332, "RA_OF_ASC_NODE": 88.8049, "ARG_OF_PERICENTER": 344.7452, "MEAN_ANOMALY": 15.2744, "EPHEMERIS_TYPE": 0, "CLASSIFICATION_TYPE": "U", "NORAD_CAT_ID": 31508, "ELEMENT_SET_NO": 999, "REV_AT_EPOCH": 96833, "BSTAR": 0.004912467, "MEAN_MOTION_DOT": 0.00024993, "MEAN_MOTION_DDOT": 0}, "tle": {"line1": "1 31508U 99025BWX 25340.51995334  .00024993  00000+0  49125-2 0  9994", "line2": "2 31508  98.6332  88.8049 0033217 344.7452  15.2744 14.62244446968331"}}, "geometry": {"type": "Point", "coordinates": [101.13012571376943, -52.46819554552161]}}, {"type": "Feature", "properties": {"norad_id": 31509, "name": "FENGYUN 1C DEB", "group": "fengyun-1c-debris", "lat": -28.257123902079726, "lon": -84.13716677251134, "alt_km": 781.5094201200154, "timestamp": "2025-12-07T09:35:10.073210+00:00", "meta": {"OBJECT_NAME": "FENGYUN 1C DEB", "OBJECT_ID": "1999-025BWY", "EPOCH": "2025-12-06T18:48:11.235168", "MEAN_MOTION": 13.94830695, "ECCENTRICITY": 0.02039551, "INCLINATION": 99.0224, "RA_OF_ASC_NODE": 100.1591, "ARG_OF_PERICENTER": 234.5964, "MEAN_ANOMALY": 123.5999, "EPHEMERIS_TYPE": 0, "CLASSIFICATION_TYPE": "U", "NORAD_CAT_ID": 31509, "ELEMENT_SET_NO": 999, "REV_AT_EPOCH": 93879, "BSTAR": 0.0039812972, "MEAN_MOTION_DOT": 6.313e-05, "MEAN_MOTION_DDOT": 0}, "tle": {"line1": "1 31509U 99025BWY 25340.78346337  .00006313  00000+0  39813-2 0  9996", "line2": "2 31509  99.0224 100.1591 0203955 234.5964 123.5999 13.94830695938792"}}, "geometry": {"type": "Point", "coordinates": [-84.13716677251134, -28.257123902079726]}}, {"type": "Feature", "properties": {"norad_id": 31510, "name": "FENGYUN 1C DEB", "group": "fengyun-1c-debris", "lat": 47.481866255697604, "lon": 170.1877921207334, "alt_km": 827.6565601647571, "timestamp": "2025-12-07T09:35:10.073220+00:00", "meta": {"OBJECT_NAME": "FENGYUN 1C DEB", "OBJECT_ID": "1999-025BWZ", "EPOCH": "2025-12-06T06:04:31.555200", "MEAN_MOTION": 14.2453779, "ECCENTRICITY": 0.00375224, "INCLINATION": 98.5536, "RA_OF_ASC_NODE": 339.6242, "ARG_OF_PERICENTER": 350.7602, "MEAN_ANOMALY": 25.5517, "EPHEMERIS_TYPE": 0, "CLASSIFICATION_TYPE": "U", "NORAD_CAT_ID": 31510, "ELEMENT_SET_NO": 999, "REV_AT_EPOCH": 96395, "BSTAR": 0.00098453338, "MEAN_MOTION_DOT": 2.258e-05, "MEAN_MOTION_DDOT": 0}, "tle": {"line1": "1 31510U 99025BWZ 25340.25314300  .00002258  00000+0  98453-3 0  9995", "line2": "2 31510  98.5536 339.6242 0037522 350.7602  25.5517 14.24537790963958"}}, "geometry": {"type": "Point", "coordinates": [170.1877921207334, 47.481866255697604]}}, {"type": "Feature", "properties": {"norad_id": 31511, "name": "FENGYUN 1C DEB", "group": "fengyun-1c-debris", "lat": 55.32603618071438, "lon": 136.49504157658984, "alt_km": 871.4547715479921, "timestamp": "2025-12-07T09:35:10.073231+00:00", "meta": {"OBJECT_NAME": "FENGYUN 1C DEB", "OBJECT_ID": "1999-025BXA", "EPOCH": "2025-12-05T22:00:15.181632", "MEAN_MOTION": 14.27991614, "ECCENTRICITY": 0.01096951, "INCLINATION": 99.0676, "RA_OF_ASC_NODE": 148.3037, "ARG_OF_PERICENTER": 246.1309, "MEAN_ANOMALY": 112.8345, "EPHEMERIS_TYPE": 0, "CLASSIFICATION_TYPE": "U", "NORAD_CAT_ID": 31511, "ELEMENT_SET_NO": 999, "REV_AT_EPOCH": 95703, "BSTAR": 0.002130032, "MEAN_MOTION_DOT": 5.59e-05, "MEAN_MOTION_DDOT": 0}, "tle": {"line1": "1 31511U 99025BXA 25339.91684238  .00005590  00000+0  21300-2 0  9995", "line2": "2 31511  99.0676 148.3037 0109695 246.1309 112.8345 14.27991614957033"}}, "geometry": {"type": "Point", "coordinates": [136.49504157658984, 55.32603618071438]}}, {"type": "Feature", "properties": {"norad_id": 31512, "name": "FENGYUN 1C DEB", "group": "fengyun-1c-debris", "lat": -7.517691449355764, "lon": -122.23104558296892, "alt_km": 850.9401445343192, "timestamp": "2025-12-07T09:35:10.073241+00:00", "meta": {"OBJECT_NAME": "FENGYUN 1C DEB", "OBJECT_ID": "1999-025BXB", "EPOCH": "2025-12-05T11:51:16.060032", "MEAN_MOTION": 14.43784162, "ECCENTRICITY": 0.01439454, "INCLINATION": 98.8042, "RA_OF_ASC_NODE": 234.6261, "ARG_OF_PERICENTER": 168.6219, "MEAN_ANOMALY": 5.8164, "EPHEMERIS_TYPE": 0, "CLASSIFICATION_TYPE": "U", "NORAD_CAT_ID": 31512, "ELEMENT_SET_NO": 999, "REV_AT_EPOCH": 65397, "BSTAR": 0.00083958761, "MEAN_MOTION_DOT": 3.189e-05, "MEAN_MOTION_DDOT": 0}, "tle": {"line1": "1 31512U 99025BXB 25339.49393588  .00003189  00000+0  83959-3 0  9995", "line2": "2 31512  98.8042 234.6261 0143945 168.6219   5.8164 14.43784162653972"}}, "geometry": {"type": "Point", "coordinates": [-122.23104558296892, -7.517691449355764]}}, {"type": "Feature", "properties": {"norad_id": 31513, "name": "FENGYUN 1C DEB", "group": "fengyun-1c-debris", "lat": 56.98492222140107, "lon": 64.11351510627104, "alt_km": 775.1880539336635, "timestamp": "2025-12-07T09:35:10.073251+00:00", "meta": {"OBJECT_NAME": "FENGYUN 1C DEB", "OBJECT_ID": "1999-025BXC", "EPOCH": "2025-11-25T02:15:23.832576", "MEAN_MOTION": 14.32315683, "ECCENTRICITY": 0.00282412, "INCLINATION": 98.8622, "RA_OF_ASC_NODE": 65.435, "ARG_OF_PERICENTER": 176.3464, "MEAN_ANOMALY": 183.7931, "EPHEMERIS_TYPE": 0, "CLASSIFICATION_TYPE": "U", "NORAD_CAT_ID": 31513, "ELEMENT_SET_NO": 999, "REV_AT_EPOCH": 72616, "BSTAR": 0.0023967664, "MEAN_MOTION_DOT": 6.459e-05, "MEAN_MOTION_DDOT": 0}, "tle": {"line1": "1 31513U 99025BXC 25329.09402584  .00006459  00000+0  23968-2 0  9994", "line2": "2 31513  98.8622  65.4350 0028241 176.3464 183.7931 14.32315683726161"}}, "geometry": {"type": "Point", "coordinates": [64.11351510627104, 56.98492222140107]}}, {"type": "Feature", "properties": {"norad_id": 31514, "name": "FENGYUN 1C DEB", "group": "fengyun-1c-debris", "lat": -16.145812551057748, "lon": 59.19223797423817, "alt_km": 811.3666832559948, "timestamp": "2025-12-07T09:35:10.073263+00:00", "meta": {"OBJECT_NAME": "FENGYUN 1C DEB", "OBJECT_ID": "1999-025BXD", "EPOCH": "2025-12-06T15:46:13.233504", "MEAN_MOTION": 14.20926247, "ECCENTRICITY": 0.00522229, "INCLINATION": 99.2471, "RA_OF_ASC_NODE": 241.1191, "ARG_OF_PERICENTER": 132.5364, "MEAN_ANOMALY": 228.0239, "EPHEMERIS_TYPE": 0, "CLASSIFICATION_TYPE": "U", "NORAD_CAT_ID": 31514, "ELEMENT_SET_NO": 999, "REV_AT_EPOCH": 69238, "BSTAR": 0.0026683713, "MEAN_MOTION_DOT": 5.813e-05, "MEAN_MOTION_DDOT": 0}, "tle": {"line1": "1 31514U 99025BXD 25340.65709761  .00005813  00000+0  26684-2 0  9998", "line2": "2 31514  99.2471 241.1191 0052222 132.5364 228.0239 14.20926247692385"}}, "geometry": {"type": "Point", "coordinates": [59.19223797423817, -16.145812551057748]}}]}